ALOS (DAICHI)           
1 28931U 06002A   26013.83353224  .00000953  00000+0  16872-3 0  9996
2 28931  98.1132 330.1044 0002139  91.7619 268.3831 14.69600799 65421
H-2A R/B                
1 28932U 06002B   26014.15034755  .00004691  00000+0  24429-3 0  9998
2 28932  98.2327 156.5676 0054457  67.3992 293.2987 15.15282027 86179
RESURS-DK 1             
1 29228U 06021A   26014.10905910  .00001483  00000+0  91485-4 0  9996
2 29228  69.9336  18.1708 0005848 230.7762 129.2885 15.12370399 79278
CZ-4B R/B               
1 29507U 06046C   26014.11043496  .00002901  00000+0  15123-3 0  9996
2 29507  97.5696  59.1619 0035318  96.4855 264.0400 15.16247875 51777
CZ-2C R/B               
1 31114U 07010B   26013.77443867  .00000073  00000+0  52137-4 0  9997
2 31114  98.3972 129.8135 0060145  93.9278 266.8778 14.20224298971929
COSMO-SKYMED 1          
1 31598U 07023A   26014.29695295  .00001635  00000+0  15092-3 0  9992
2 31598  97.8845 204.9167 0001271  74.8572 285.2790 14.96049086  6772
COSMOS 2428             
1 31792U 07029A   26014.09279327  .00000327  00000+0  20121-3 0  9992
2 31792  70.9397 317.9528 0005614 340.1276  19.9626 14.12909354956385
SL-16 R/B               
1 31793U 07029B   26014.21447245 -.00000247  00000+0 -10330-3 0  9997
2 31793  70.9764 286.8950 0002253 273.4839 248.3722 14.14824475957665
KORONAS-FOTON           
1 33504U 09003A   26013.62649474  .00007083  00000+0  16561-3 0  9990
2 33504  82.4317 333.0480 0011382   7.7643 352.3777 15.41888890937257
CZ-2C R/B               
1 37731U 11030B   26014.15071062  .00000810  00000+0  10890-3 0  9990
2 37731  97.8454 332.5500 0053007 166.2618 204.6241 14.81009159782029
H-2A R/B                
1 38341U 12025E   26014.17754701  .00002350  00000+0  21843-3 0  9994
2 38341  98.4637 336.9219 0046161 129.6107 230.9201 14.94676876740078
SHIJIAN-16 (SJ-16)      
1 39358U 13057A   26014.32368005  .00001970  00000+0  19592-3 0  9999
2 39358  74.9736 287.9963 0017827 244.4746 115.4599 14.92140155663399
