CCSDS_OMM_VERS = 2.0
CREATION_DATE  = 
ORIGINATOR     = 

OBJECT_NAME    = ALOS (DAICHI)
OBJECT_ID      = 2006-002A
CENTER_NAME    = EARTH
REF_FRAME      = TEME
TIME_SYSTEM    = UTC
MEAN_ELEMENT_THEORY = SGP/SGP4

EPOCH          = 2026-01-13T20:00:17.185536
MEAN_MOTION    = 14.69600799
ECCENTRICITY   = .00021399
INCLINATION    = 98.1132
RA_OF_ASC_NODE = 330.1044
ARG_OF_PERICENTER = 91.7619
MEAN_ANOMALY   = 268.3831

EPHEMERIS_TYPE = 0
CLASSIFICATION_TYPE = U
NORAD_CAT_ID   = 28931
ELEMENT_SET_NO = 999
REV_AT_EPOCH   = 6542
BSTAR          = .16872055E-3
MEAN_MOTION_DOT = .953E-5
MEAN_MOTION_DDOT = 0

CCSDS_OMM_VERS = 2.0
CREATION_DATE  = 
ORIGINATOR     = 

OBJECT_NAME    = H-2A R/B
OBJECT_ID      = 2006-002B
CENTER_NAME    = EARTH
REF_FRAME      = TEME
TIME_SYSTEM    = UTC
MEAN_ELEMENT_THEORY = SGP/SGP4

EPOCH          = 2026-01-14T03:36:30.028320
MEAN_MOTION    = 15.15282027
ECCENTRICITY   = .00544577
INCLINATION    = 98.2327
RA_OF_ASC_NODE = 156.5676
ARG_OF_PERICENTER = 67.3992
MEAN_ANOMALY   = 293.2987

EPHEMERIS_TYPE = 0
CLASSIFICATION_TYPE = U
NORAD_CAT_ID   = 28932
ELEMENT_SET_NO = 999
REV_AT_EPOCH   = 8617
BSTAR          = .24429181E-3
MEAN_MOTION_DOT = .4691E-4
MEAN_MOTION_DDOT = 0

CCSDS_OMM_VERS = 2.0
CREATION_DATE  = 
ORIGINATOR     = 

OBJECT_NAME    = RESURS-DK 1
OBJECT_ID      = 2006-021A
CENTER_NAME    = EARTH
REF_FRAME      = TEME
TIME_SYSTEM    = UTC
MEAN_ELEMENT_THEORY = SGP/SGP4

EPOCH          = 2026-01-14T02:37:02.706240
MEAN_MOTION    = 15.12370399
ECCENTRICITY   = .00058486
INCLINATION    = 69.9336
RA_OF_ASC_NODE = 18.1708
ARG_OF_PERICENTER = 230.7762
MEAN_ANOMALY   = 129.2885

EPHEMERIS_TYPE = 0
CLASSIFICATION_TYPE = U
NORAD_CAT_ID   = 29228
ELEMENT_SET_NO = 999
REV_AT_EPOCH   = 7927
BSTAR          = .91484892E-4
MEAN_MOTION_DOT = .1483E-4
MEAN_MOTION_DDOT = 0

CCSDS_OMM_VERS = 2.0
CREATION_DATE  = 
ORIGINATOR     = 

OBJECT_NAME    = CZ-4B R/B
OBJECT_ID      = 2006-046C
CENTER_NAME    = EARTH
REF_FRAME      = TEME
TIME_SYSTEM    = UTC
MEAN_ELEMENT_THEORY = SGP/SGP4

EPOCH          = 2026-01-14T02:39:01.580544
MEAN_MOTION    = 15.16247875
ECCENTRICITY   = .00353188
INCLINATION    = 97.5696
RA_OF_ASC_NODE = 59.1619
ARG_OF_PERICENTER = 96.4855
MEAN_ANOMALY   = 264.0400

EPHEMERIS_TYPE = 0
CLASSIFICATION_TYPE = U
NORAD_CAT_ID   = 29507
ELEMENT_SET_NO = 999
REV_AT_EPOCH   = 5177
BSTAR          = .15123247E-3
MEAN_MOTION_DOT = .2901E-4
MEAN_MOTION_DDOT = 0

CCSDS_OMM_VERS = 2.0
CREATION_DATE  = 
ORIGINATOR     = 

OBJECT_NAME    = CZ-2C R/B
OBJECT_ID      = 2007-010B
CENTER_NAME    = EARTH
REF_FRAME      = TEME
TIME_SYSTEM    = UTC
MEAN_ELEMENT_THEORY = SGP/SGP4

EPOCH          = 2026-01-13T18:35:11.501088
MEAN_MOTION    = 14.20224298
ECCENTRICITY   = .00601456
INCLINATION    = 98.3972
RA_OF_ASC_NODE = 129.8135
ARG_OF_PERICENTER = 93.9278
MEAN_ANOMALY   = 266.8778

EPHEMERIS_TYPE = 0
CLASSIFICATION_TYPE = U
NORAD_CAT_ID   = 31114
ELEMENT_SET_NO = 999
REV_AT_EPOCH   = 97192
BSTAR          = .52136823E-4
MEAN_MOTION_DOT = .73E-6
MEAN_MOTION_DDOT = 0

CCSDS_OMM_VERS = 2.0
CREATION_DATE  = 
ORIGINATOR     = 

OBJECT_NAME    = COSMO-SKYMED 1
OBJECT_ID      = 2007-023A
CENTER_NAME    = EARTH
REF_FRAME      = TEME
TIME_SYSTEM    = UTC
MEAN_ELEMENT_THEORY = SGP/SGP4

EPOCH          = 2026-01-14T07:07:36.734880
MEAN_MOTION    = 14.96049086
ECCENTRICITY   = .00012716
INCLINATION    = 97.8845
RA_OF_ASC_NODE = 204.9167
ARG_OF_PERICENTER = 74.8572
MEAN_ANOMALY   = 285.2790

EPHEMERIS_TYPE = 0
CLASSIFICATION_TYPE = U
NORAD_CAT_ID   = 31598
ELEMENT_SET_NO = 999
REV_AT_EPOCH   = 677
BSTAR          = .15092E-3
MEAN_MOTION_DOT = .1635E-4
MEAN_MOTION_DDOT = 0

CCSDS_OMM_VERS = 2.0
CREATION_DATE  = 
ORIGINATOR     = 

OBJECT_NAME    = COSMOS 2428
OBJECT_ID      = 2007-029A
CENTER_NAME    = EARTH
REF_FRAME      = TEME
TIME_SYSTEM    = UTC
MEAN_ELEMENT_THEORY = SGP/SGP4

EPOCH          = 2026-01-14T02:13:37.338528
MEAN_MOTION    = 14.12909354
ECCENTRICITY   = .00056145
INCLINATION    = 70.9397
RA_OF_ASC_NODE = 317.9528
ARG_OF_PERICENTER = 340.1276
MEAN_ANOMALY   = 19.9626

EPHEMERIS_TYPE = 0
CLASSIFICATION_TYPE = U
NORAD_CAT_ID   = 31792
ELEMENT_SET_NO = 999
REV_AT_EPOCH   = 95638
BSTAR          = .20121242E-3
MEAN_MOTION_DOT = .327E-5
MEAN_MOTION_DDOT = 0

CCSDS_OMM_VERS = 2.0
CREATION_DATE  = 
ORIGINATOR     = 

OBJECT_NAME    = SL-16 R/B
OBJECT_ID      = 2007-029B
CENTER_NAME    = EARTH
REF_FRAME      = TEME
TIME_SYSTEM    = UTC
MEAN_ELEMENT_THEORY = SGP/SGP4

EPOCH          = 2026-01-14T05:08:50.419680
MEAN_MOTION    = 14.14824475
ECCENTRICITY   = .00022537
INCLINATION    = 70.9764
RA_OF_ASC_NODE = 286.8950
ARG_OF_PERICENTER = 273.4839
MEAN_ANOMALY   = 248.3722

EPHEMERIS_TYPE = 0
CLASSIFICATION_TYPE = U
NORAD_CAT_ID   = 31793
ELEMENT_SET_NO = 999
REV_AT_EPOCH   = 95766
BSTAR          = -.10330032E-3
MEAN_MOTION_DOT = -.247E-5
MEAN_MOTION_DDOT = 0

CCSDS_OMM_VERS = 2.0
CREATION_DATE  = 
ORIGINATOR     = 

OBJECT_NAME    = KORONAS-FOTON
OBJECT_ID      = 2009-003A
CENTER_NAME    = EARTH
REF_FRAME      = TEME
TIME_SYSTEM    = UTC
MEAN_ELEMENT_THEORY = SGP/SGP4

EPOCH          = 2026-01-13T15:02:09.145536
MEAN_MOTION    = 15.41888890
ECCENTRICITY   = .00113829
INCLINATION    = 82.4317
RA_OF_ASC_NODE = 333.0480
ARG_OF_PERICENTER = 7.7643
MEAN_ANOMALY   = 352.3777

EPHEMERIS_TYPE = 0
CLASSIFICATION_TYPE = U
NORAD_CAT_ID   = 33504
ELEMENT_SET_NO = 999
REV_AT_EPOCH   = 93725
BSTAR          = .16560732E-3
MEAN_MOTION_DOT = .7083E-4
MEAN_MOTION_DDOT = 0

CCSDS_OMM_VERS = 2.0
CREATION_DATE  = 
ORIGINATOR     = 

OBJECT_NAME    = CZ-2C R/B
OBJECT_ID      = 2011-030B
CENTER_NAME    = EARTH
REF_FRAME      = TEME
TIME_SYSTEM    = UTC
MEAN_ELEMENT_THEORY = SGP/SGP4

EPOCH          = 2026-01-14T03:37:01.397568
MEAN_MOTION    = 14.81009159
ECCENTRICITY   = .00530073
INCLINATION    = 97.8454
RA_OF_ASC_NODE = 332.5500
ARG_OF_PERICENTER = 166.2618
MEAN_ANOMALY   = 204.6241

EPHEMERIS_TYPE = 0
CLASSIFICATION_TYPE = U
NORAD_CAT_ID   = 37731
ELEMENT_SET_NO = 999
REV_AT_EPOCH   = 78202
BSTAR          = .10890107E-3
MEAN_MOTION_DOT = .81E-5
MEAN_MOTION_DDOT = 0

CCSDS_OMM_VERS = 2.0
CREATION_DATE  = 
ORIGINATOR     = 

OBJECT_NAME    = H-2A R/B
OBJECT_ID      = 2012-025E
CENTER_NAME    = EARTH
REF_FRAME      = TEME
TIME_SYSTEM    = UTC
MEAN_ELEMENT_THEORY = SGP/SGP4

EPOCH          = 2026-01-14T04:15:40.061664
MEAN_MOTION    = 14.94676876
ECCENTRICITY   = .00461619
INCLINATION    = 98.4637
RA_OF_ASC_NODE = 336.9219
ARG_OF_PERICENTER = 129.6107
MEAN_ANOMALY   = 230.9201

EPHEMERIS_TYPE = 0
CLASSIFICATION_TYPE = U
NORAD_CAT_ID   = 38341
ELEMENT_SET_NO = 999
REV_AT_EPOCH   = 74007
BSTAR          = .21843039E-3
MEAN_MOTION_DOT = .235E-4
MEAN_MOTION_DDOT = 0

CCSDS_OMM_VERS = 2.0
CREATION_DATE  = 
ORIGINATOR     = 

OBJECT_NAME    = SHIJIAN-16 (SJ-16)
OBJECT_ID      = 2013-057A
CENTER_NAME    = EARTH
REF_FRAME      = TEME
TIME_SYSTEM    = UTC
MEAN_ELEMENT_THEORY = SGP/SGP4

EPOCH          = 2026-01-14T07:46:05.956320
MEAN_MOTION    = 14.92140155
ECCENTRICITY   = .00178274
INCLINATION    = 74.9736
RA_OF_ASC_NODE = 287.9963
ARG_OF_PERICENTER = 244.4746
MEAN_ANOMALY   = 115.4599

EPHEMERIS_TYPE = 0
CLASSIFICATION_TYPE = U
NORAD_CAT_ID   = 39358
ELEMENT_SET_NO = 999
REV_AT_EPOCH   = 66339
BSTAR          = .19591769E-3
MEAN_MOTION_DOT = .197E-4
MEAN_MOTION_DDOT = 0

